{
    "links": {
        "self": "http://www.neowsapp.com/rest/v1/neo/3426409?api_key=iIulBulltgU6a56xZRHN4H3l9WmuAYTsLGpBGhQ2"
    },
    "id": "3426409",
    "neo_reference_id": "3426409",
    "name": "(2008 QU11)",
    "designation": "2008 QU11",
    "nasa_jpl_url": "http://ssd.jpl.nasa.gov/sbdb.cgi?sstr=3426409",
    "absolute_magnitude_h": 25.5,
    "estimated_diameter": {
        "kilometers": {
            "estimated_diameter_min": 0.0211132445,
            "estimated_diameter_max": 0.0472106499
        },
        "meters": {
            "estimated_diameter_min": 21.113244479,
            "estimated_diameter_max": 47.2106498806
        },
        "miles": {
            "estimated_diameter_min": 0.0131191578,
            "estimated_diameter_max": 0.0293353287
        },
        "feet": {
            "estimated_diameter_min": 69.2691770164,
            "estimated_diameter_max": 154.8905885541
        }
    },
    "is_potentially_hazardous_asteroid": false,
    "close_approach_data": [
        {
            "close_approach_date": "2008-08-22",
            "close_approach_date_full": "2008-Aug-22 07:27",
            "epoch_date_close_approach": 1219390020000,
            "relative_velocity": {
                "kilometers_per_second": "11.8522841716",
                "kilometers_per_hour": "42668.223017728",
                "miles_per_hour": "26512.3744634321"
            },
            "miss_distance": {
                "astronomical": "0.0198248442",
                "lunar": "7.7118643938",
                "kilometers": "2965754.465401854",
                "miles": "1842834.3714354252"
            },
            "orbiting_body": "Earth"
        }
    ],
    "orbital_data": {
        "orbit_id": "9",
        "orbit_determination_date": "2017-04-06 09:03:03",
        "first_observation_date": "2008-08-26",
        "last_observation_date": "2008-09-03",
        "data_arc_in_days": 8,
        "observations_used": 43,
        "orbit_uncertainty": "8",
        "minimum_orbit_intersection": ".0198165",
        "jupiter_tisserand_invariant": "3.922",
        "epoch_osculation": "2454706.5",
        "eccentricity": ".4963469373997308",
        "semi_major_axis": "1.785292896082656",
        "inclination": "7.993740759163964",
        "ascending_node_longitude": "156.8268464706979",
        "orbital_period": "871.2898246881217",
        "perihelion_distance": ".8991682347505338",
        "perihelion_argument": "122.7531099284209",
        "aphelion_distance": "2.671417557414777",
        "perihelion_time": "2454662.371139611478",
        "mean_anomaly": "18.23318635168781",
        "mean_motion": ".4131805397002795",
        "equinox": "J2000",
        "orbit_class": {
            "orbit_class_type": "APO",
            "orbit_class_description": "Near-Earth asteroid orbits which cross the Earth’s orbit similar to that of 1862 Apollo",
            "orbit_class_range": "a (semi-major axis) > 1.0 AU; q (perihelion) < 1.017 AU"
        }
    },
    "is_sentry_object": false
}